[{"OBJECT_NAME":"ONEWEB-0629","OBJECT_ID":"2023-004AG","EPOCH":"2026-06-14T01:49:30.150624","MEAN_MOTION":13.17647284,"ECCENTRICITY":0.000192,"INCLINATION":87.9132,"RA_OF_ASC_NODE":6.4896,"ARG_OF_PERICENTER":78.5216,"MEAN_ANOMALY":281.6131,"EPHEMERIS_TYPE":0,"CLASSIFICATION_TYPE":"U","NORAD_CAT_ID":55170,"ELEMENT_SET_NO":999,"REV_AT_EPOCH":16717,"BSTAR":6.3191e-05,"MEAN_MOTION_DOT":3.7e-07,"MEAN_MOTION_DDOT":0.0},{"OBJECT_NAME":"ONEWEB-0631","OBJECT_ID":"2023-004AH","EPOCH":"2026-06-14T05:14:10.203360","MEAN_MOTION":13.18684587,"ECCENTRICITY":0.0002196,"INCLINATION":87.9168,"RA_OF_ASC_NODE":336.0263,"ARG_OF_PERICENTER":103.3699,"MEAN_ANOMALY":256.7678,"EPHEMERIS_TYPE":0,"CLASSIFICATION_TYPE":"U","NORAD_CAT_ID":55171,"ELEMENT_SET_NO":999,"REV_AT_EPOCH":16928,"BSTAR":2.5976e-05,"MEAN_MOTION_DOT":2.3e-07,"MEAN_MOTION_DDOT":0.0},{"OBJECT_NAME":"ONEWEB-0709","OBJECT_ID":"2023-004AJ","EPOCH":"2026-06-14T03:39:32.961312","MEAN_MOTION":13.11413991,"ECCENTRICITY":0.0001654,"INCLINATION":87.8886,"RA_OF_ASC_NODE":21.6835,"ARG_OF_PERICENTER":114.414,"MEAN_ANOMALY":245.716,"EPHEMERIS_TYPE":0,"CLASSIFICATION_TYPE":"U","NORAD_CAT_ID":55172,"ELEMENT_SET_NO":999,"REV_AT_EPOCH":16547,"BSTAR":-0.0005062900000000001,"MEAN_MOTION_DOT":-1.67e-06,"MEAN_MOTION_DDOT":0.0},{"OBJECT_NAME":"ONEWEB-0710","OBJECT_ID":"2023-004AK","EPOCH":"2026-06-14T02:10:10.293024","MEAN_MOTION":13.17649572,"ECCENTRICITY":0.0002009,"INCLINATION":87.9134,"RA_OF_ASC_NODE":6.4819,"ARG_OF_PERICENTER":87.6605,"MEAN_ANOMALY":272.4757,"EPHEMERIS_TYPE":0,"CLASSIFICATION_TYPE":"U","NORAD_CAT_ID":55173,"ELEMENT_SET_NO":999,"REV_AT_EPOCH":16717,"BSTAR":0.00021985,"MEAN_MOTION_DOT":9.8e-07,"MEAN_MOTION_DDOT":0.0},{"OBJECT_NAME":"ONEWEB-0711","OBJECT_ID":"2023-004AL","EPOCH":"2026-06-14T02:58:04.107360","MEAN_MOTION":13.11419329,"ECCENTRICITY":0.0002558,"INCLINATION":87.8889,"RA_OF_ASC_NODE":21.6766,"ARG_OF_PERICENTER":83.3397,"MEAN_ANOMALY":276.8022,"EPHEMERIS_TYPE":0,"CLASSIFICATION_TYPE":"U","NORAD_CAT_ID":55174,"ELEMENT_SET_NO":999,"REV_AT_EPOCH":16543,"BSTAR":0.0015841,"MEAN_MOTION_DOT":5.74e-06,"MEAN_MOTION_DDOT":0.0},{"OBJECT_NAME":"ONEWEB-0713","OBJECT_ID":"2023-004AM","EPOCH":"2026-06-14T07:04:39.170784","MEAN_MOTION":13.11414675,"ECCENTRICITY":0.0002211,"INCLINATION":87.8889,"RA_OF_ASC_NODE":21.6439,"ARG_OF_PERICENTER":84.5899,"MEAN_ANOMALY":275.5482,"EPHEMERIS_TYPE":0,"CLASSIFICATION_TYPE":"U","NORAD_CAT_ID":55175,"ELEMENT_SET_NO":999,"REV_AT_EPOCH":16544,"BSTAR":0.00094928,"MEAN_MOTION_DOT":3.49e-06,"MEAN_MOTION_DDOT":0.0},{"OBJECT_NAME":"ONEWEB-0715","OBJECT_ID":"2023-004AN","EPOCH":"2026-06-14T06:57:19.395648","MEAN_MOTION":13.11417065,"ECCENTRICITY":0.0001976,"INCLINATION":87.8889,"RA_OF_ASC_NODE":21.6457,"ARG_OF_PERICENTER":106.1496,"MEAN_ANOMALY":253.985,"EPHEMERIS_TYPE":0,"CLASSIFICATION_TYPE":"U","NORAD_CAT_ID":55176,"ELEMENT_SET_NO":999,"REV_AT_EPOCH":16548,"BSTAR":0.0013813,"MEAN_MOTION_DOT":5.02e-06,"MEAN_MOTION_DDOT":0.0},{"OBJECT_NAME":"ONEWEB-0716","OBJECT_ID":"2023-004AP","EPOCH":"2026-06-14T02:00:27.100800","MEAN_MOTION":13.17649434,"ECCENTRICITY":0.0001617,"INCLINATION":87.9137,"RA_OF_ASC_NODE":6.4862,"ARG_OF_PERICENTER":84.2349,"MEAN_ANOMALY":275.8967,"EPHEMERIS_TYPE":0,"CLASSIFICATION_TYPE":"U","NORAD_CAT_ID":55177,"ELEMENT_SET_NO":999,"REV_AT_EPOCH":16717,"BSTAR":0.00019130000000000001,"MEAN_MOTION_DOT":8.7e-07,"MEAN_MOTION_DDOT":0.0},{"OBJECT_NAME":"ONEWEB-0717","OBJECT_ID":"2023-004AQ","EPOCH":"2026-06-14T07:04:11.923680","MEAN_MOTION":13.17647835,"ECCENTRICITY":0.0002424,"INCLINATION":87.9144,"RA_OF_ASC_NODE":6.4315,"ARG_OF_PERICENTER":90.8404,"MEAN_ANOMALY":269.3006,"EPHEMERIS_TYPE":0,"CLASSIFICATION_TYPE":"U","NORAD_CAT_ID":55178,"ELEMENT_SET_NO":999,"REV_AT_EPOCH":16725,"BSTAR":9.8509e-06,"MEAN_MOTION_DOT":1.7e-07,"MEAN_MOTION_DDOT":0.0},{"OBJECT_NAME":"ONEWEB-0719","OBJECT_ID":"2023-004AR","EPOCH":"2026-06-14T01:50:44.479680","MEAN_MOTION":13.17648681,"ECCENTRICITY":0.0001778,"INCLINATION":87.9142,"RA_OF_ASC_NODE":6.4551,"ARG_OF_PERICENTER":82.2925,"MEAN_ANOMALY":277.8408,"EPHEMERIS_TYPE":0,"CLASSIFICATION_TYPE":"U","NORAD_CAT_ID":55179,"ELEMENT_SET_NO":999,"REV_AT_EPOCH":16717,"BSTAR":0.00013002,"MEAN_MOTION_DOT":6.3e-07,"MEAN_MOTION_DDOT":0.0},{"OBJECT_NAME":"ONEWEB-0530","OBJECT_ID":"2023-029A","EPOCH":"2026-06-14T06:53:11.031936","MEAN_MOTION":13.2077149,"ECCENTRICITY":0.0002326,"INCLINATION":87.9182,"RA_OF_ASC_NODE":275.0472,"ARG_OF_PERICENTER":92.6997,"MEAN_ANOMALY":267.4402,"EPHEMERIS_TYPE":0,"CLASSIFICATION_TYPE":"U","NORAD_CAT_ID":55796,"ELEMENT_SET_NO":999,"REV_AT_EPOCH":16076,"BSTAR":0.00022209,"MEAN_MOTION_DOT":1.03e-06,"MEAN_MOTION_DDOT":0.0},{"OBJECT_NAME":"ONEWEB-0534","OBJECT_ID":"2023-029B","EPOCH":"2026-06-14T06:36:12.373344","MEAN_MOTION":13.20771365,"ECCENTRICITY":0.0001862,"INCLINATION":87.9183,"RA_OF_ASC_NODE":275.0502,"ARG_OF_PERICENTER":100.335,"MEAN_ANOMALY":259.7994,"EPHEMERIS_TYPE":0,"CLASSIFICATION_TYPE":"U","NORAD_CAT_ID":55797,"ELEMENT_SET_NO":999,"REV_AT_EPOCH":16076,"BSTAR":0.00016438,"MEAN_MOTION_DOT":8e-07,"MEAN_MOTION_DDOT":0.0},{"OBJECT_NAME":"ONEWEB-0556","OBJECT_ID":"2023-029C","EPOCH":"2026-06-14T06:45:54.229824","MEAN_MOTION":13.20773834,"ECCENTRICITY":0.0001703,"INCLINATION":87.9182,"RA_OF_ASC_NODE":275.0483,"ARG_OF_PERICENTER":74.2807,"MEAN_ANOMALY":285.8514,"EPHEMERIS_TYPE":0,"CLASSIFICATION_TYPE":"U","NORAD_CAT_ID":55798,"ELEMENT_SET_NO":999,"REV_AT_EPOCH":16076,"BSTAR":0.00015964,"MEAN_MOTION_DOT":7.8e-07,"MEAN_MOTION_DDOT":0.0},{"OBJECT_NAME":"ONEWEB-0562","OBJECT_ID":"2023-029D","EPOCH":"2026-06-14T06:26:30.286176","MEAN_MOTION":13.20770738,"ECCENTRICITY":0.000239,"INCLINATION":87.9184,"RA_OF_ASC_NODE":275.0319,"ARG_OF_PERICENTER":80.291,"MEAN_ANOMALY":279.8493,"EPHEMERIS_TYPE":0,"CLASSIFICATION_TYPE":"U","NORAD_CAT_ID":55799,"ELEMENT_SET_NO":999,"REV_AT_EPOCH":16076,"BSTAR":4.4278000000000005e-05,"MEAN_MOTION_DOT":3.1e-07,"MEAN_MOTION_DDOT":0.0},{"OBJECT_NAME":"ONEWEB-0563","OBJECT_ID":"2023-029E","EPOCH":"2026-06-14T06:19:14.690208","MEAN_MOTION":13.20775585,"ECCENTRICITY":0.0001751,"INCLINATION":87.9183,"RA_OF_ASC_NODE":275.0634,"ARG_OF_PERICENTER":102.4218,"MEAN_ANOMALY":257.7112,"EPHEMERIS_TYPE":0,"CLASSIFICATION_TYPE":"U","NORAD_CAT_ID":55800,"ELEMENT_SET_NO":999,"REV_AT_EPOCH":16075,"BSTAR":-0.0020322,"MEAN_MOTION_DOT":-8.13e-06,"MEAN_MOTION_DDOT":0.0},{"OBJECT_NAME":"ONEWEB-0564","OBJECT_ID":"2023-029F","EPOCH":"2026-06-14T06:09:32.954688","MEAN_MOTION":13.2077112,"ECCENTRICITY":0.00022,"INCLINATION":87.9184,"RA_OF_ASC_NODE":275.0381,"ARG_OF_PERICENTER":91.0597,"MEAN_ANOMALY":269.0788,"EPHEMERIS_TYPE":0,"CLASSIFICATION_TYPE":"U","NORAD_CAT_ID":55801,"ELEMENT_SET_NO":999,"REV_AT_EPOCH":16076,"BSTAR":0.00021726999999999998,"MEAN_MOTION_DOT":1.01e-06,"MEAN_MOTION_DDOT":0.0}]