ONEWEB-0629             
1 55170U 23004AG  26165.07604341  .00000037  00000+0  63191-4 0  9995
2 55170  87.9132   6.4896 0001920  78.5216 281.6131 13.17647284167171
ONEWEB-0631             
1 55171U 23004AH  26165.21817365  .00000023  00000+0  25976-4 0  9998
2 55171  87.9168 336.0263 0002196 103.3699 256.7678 13.18684587169280
ONEWEB-0709             
1 55172U 23004AJ  26165.15246483 -.00000167  00000+0 -50629-3 0  9992
2 55172  87.8886  21.6835 0001654 114.4140 245.7160 13.11413991165474
ONEWEB-0710             
1 55173U 23004AK  26165.09039691  .00000098  00000+0  21985-3 0  9991
2 55173  87.9134   6.4819 0002009  87.6605 272.4757 13.17649572167177
ONEWEB-0711             
1 55174U 23004AL  26165.12365865  .00000574  00000+0  15841-2 0  9993
2 55174  87.8889  21.6766 0002558  83.3397 276.8022 13.11419329165433
ONEWEB-0713             
1 55175U 23004AM  26165.29489781  .00000349  00000+0  94928-3 0  9990
2 55175  87.8889  21.6439 0002211  84.5899 275.5482 13.11414675165443
ONEWEB-0715             
1 55176U 23004AN  26165.28980782  .00000502  00000+0  13813-2 0  9991
2 55176  87.8889  21.6457 0001976 106.1496 253.9850 13.11417065165484
ONEWEB-0716             
1 55177U 23004AP  26165.08364700  .00000087  00000+0  19130-3 0  9993
2 55177  87.9137   6.4862 0001617  84.2349 275.8967 13.17649434167171
ONEWEB-0717             
1 55178U 23004AQ  26165.29458245  .00000017  00000+0  98509-5 0  9997
2 55178  87.9144   6.4315 0002424  90.8404 269.3006 13.17647835167259
ONEWEB-0719             
1 55179U 23004AR  26165.07690370  .00000063  00000+0  13002-3 0  9995
2 55179  87.9142   6.4551 0001778  82.2925 277.8408 13.17648681167175
ONEWEB-0530             
1 55796U 23029A   26165.28693324  .00000103  00000+0  22209-3 0  9996
2 55796  87.9182 275.0472 0002326  92.6997 267.4402 13.20771490160760
ONEWEB-0534             
1 55797U 23029B   26165.27514321  .00000080  00000+0  16438-3 0  9996
2 55797  87.9183 275.0502 0001862 100.3350 259.7994 13.20771365160761
ONEWEB-0556             
1 55798U 23029C   26165.28187766  .00000078  00000+0  15964-3 0  9997
2 55798  87.9182 275.0483 0001703  74.2807 285.8514 13.20773834160760
ONEWEB-0562             
1 55799U 23029D   26165.26840609  .00000031  00000+0  44278-4 0  9998
2 55799  87.9184 275.0319 0002390  80.2910 279.8493 13.20770738160765
ONEWEB-0563             
1 55800U 23029E   26165.26336447 -.00000813  00000+0 -20322-2 0  9993
2 55800  87.9183 275.0634 0001751 102.4218 257.7112 13.20775585160752
ONEWEB-0564             
1 55801U 23029F   26165.25663142  .00000101  00000+0  21727-3 0  9997
2 55801  87.9184 275.0381 0002200  91.0597 269.0788 13.20771120160763
